NORAD_CAT_ID,OBJECT_NAME,OBJECT_TYPE,EPOCH,MEAN_MOTION,ECCENTRICITY,INCLINATION,RA_OF_ASC_NODE,ARG_OF_PERICENTER,MEAN_ANOMALY,BSTAR,MEAN_MOTION_DOT,MEAN_MOTION_DDOT,TLE_LINE0,TLE_LINE1,TLE_LINE2,SEMIMAJOR_AXIS,PERIOD,APOGEE,PERIGEE,DECAYED
52346.0,STARLINK-3812,PAYLOAD,2024-03-17 18:11:10,15.08821223,0.0001153,53.2167,200.012,101.7156,258.3966,-6.6172e-05,-1.34e-05,0.0,0 STARLINK-3812,1 52346U 22045R   24077.75776425 -.00001340  00000-0 -66172-4 0  9992,2 52346  53.2167 200.0120 0001153 101.7156 258.3966 15.08821223106796,6917.938,95.439,540.6,539.005,0.0
52346.0,STARLINK-3812,PAYLOAD,2024-03-18 11:40:25,15.08829194,0.000102,53.2168,196.7431,75.4782,284.6323,-5.187e-06,-3.7e-06,0.0,0 STARLINK-3812,1 52346U 22045R   24078.48640446 -.00000370  00000-0 -51870-5 0  9998,2 52346  53.2168 196.7431 0001020  75.4782 284.6323 15.08829194106905,6917.913,95.438,540.484,539.073,0.0
52346.0,STARLINK-3812,PAYLOAD,2024-03-19 11:31:10,15.08842562,0.0001325,53.2172,192.28,98.9074,261.2068,0.00031876,4.789e-05,0.0,0 STARLINK-3812,1 52346U 22045R   24079.47998681  .00004789  00000-0  31876-3 0  9993,2 52346  53.2172 192.2800 0001325  98.9074 261.2068 15.08842562107051,6917.873,95.437,540.654,538.821,0.0
52346.0,STARLINK-3812,PAYLOAD,2024-03-19 13:06:33,15.08845267,0.0001382,53.2171,191.981,100.632,259.4828,0.00033406,5.033e-05,0.0,0 STARLINK-3812,1 52346U 22045R   24079.54622467  .00005033  00000-0  33406-3 0  9991,2 52346  53.2171 191.9810 0001382 100.6320 259.4828 15.08845267107064,6917.864,95.437,540.685,538.773,0.0
52346.0,STARLINK-3812,PAYLOAD,2024-03-20 06:35:48,15.08843794,0.0001723,53.2169,188.7091,129.1504,230.9642,0.0001158,1.556e-05,0.0,0 STARLINK-3812,1 52346U 22045R   24080.27487075  .00001556  00000-0  11580-3 0  9992,2 52346  53.2169 188.7091 0001723 129.1504 230.9642 15.08843794107178,6917.869,95.437,540.926,538.542,0.0
52346.0,STARLINK-3812,PAYLOAD,2024-03-20 12:57:21,15.08845193,0.0001548,53.2159,187.5114,137.7426,222.3685,-4.4249e-05,-9.92e-06,0.0,0 STARLINK-3812,1 52346U 22045R   24080.53983375 -.00000992  00000-0 -44249-4 0  9999,2 52346  53.2159 187.5114 0001548 137.7426 222.3685 15.08845193107215,6917.865,95.437,540.8,538.659,0.0
52346.0,STARLINK-3812,PAYLOAD,2024-03-20 14:32:45,15.08834972,0.0001327,53.2166,187.2212,100.6006,259.5136,-0.00011455,-2.11e-05,0.0,0 STARLINK-3812,1 52346U 22045R   24080.60608410 -.00002110  00000-0 -11455-3 0  9997,2 52346  53.2166 187.2212 0001327 100.6006 259.5136 15.08834972107224,6917.896,95.438,540.679,538.843,0.0
52346.0,STARLINK-3812,PAYLOAD,2024-03-21 00:05:03,15.08849592,0.0001355,53.2166,185.4379,93.1477,266.967,-7.8391e-05,-1.536e-05,0.0,0 STARLINK-3812,1 52346U 22045R   24081.00351465 -.00001536  00000-0 -78391-4 0  9991,2 52346  53.2166 185.4379 0001355  93.1477 266.9670 15.08849592107282,6917.851,95.437,540.653,538.779,0.0
52346.0,STARLINK-3812,PAYLOAD,2024-03-21 12:48:09,15.08842672,0.0001541,53.2176,183.0592,96.157,263.9598,-9.5363e-05,-1.806e-05,0.0,0 STARLINK-3812,1 52346U 22045R   24081.53343848 -.00001806  00000-0 -95363-4 0  9993,2 52346  53.2176 183.0592 0001541  96.1570 263.9598 15.08842672107365,6917.872,95.437,540.803,538.671,0.0
52346.0,STARLINK-3812,PAYLOAD,2024-03-21 14:23:31,15.08854269,0.0001379,53.2174,182.7619,91.9898,268.1252,-1.2527e-05,-4.87e-06,0.0,0 STARLINK-3812,1 52346U 22045R   24081.59966856 -.00000487  00000-0 -12527-4 0  9994,2 52346  53.2174 182.7619 0001379  91.9898 268.1252 15.08854269107374,6917.837,95.437,540.656,538.748,0.0
52346.0,STARLINK-3812,PAYLOAD,2024-03-22 12:38:53,15.0887113,0.0001671,53.2174,178.5951,125.1055,235.0094,0.00042762,6.53e-05,0.0,0 STARLINK-3812,1 52346U 22045R   24082.52700252  .00006530  00000-0  42762-3 0  9990,2 52346  53.2174 178.5951 0001671 125.1055 235.0094 15.08871130107515,6917.785,95.436,540.806,538.494,0.0
52346.0,STARLINK-3812,PAYLOAD,2024-03-23 12:29:43,15.08839878,0.0001653,53.2174,174.1419,86.9652,273.1529,-4.7577e-06,-3.64e-06,0.0,0 STARLINK-3812,1 52346U 22045R   24083.52063935 -.00000364  00000-0 -47577-5 0  9993,2 52346  53.2174 174.1419 0001653  86.9652 273.1529 15.08839878107668,6917.881,95.438,540.889,538.602,0.0
52346.0,STARLINK-3812,PAYLOAD,2024-03-24 12:20:28,15.08859145,0.0001533,53.2169,169.6769,110.7733,249.3424,0.00010538,1.39e-05,0.0,0 STARLINK-3812,1 52346U 22045R   24084.51422440  .00001390  00000-0  10538-3 0  9996,2 52346  53.2169 169.6769 0001533 110.7733 249.3424 15.08859145107817,6917.822,95.436,540.747,538.626,0.0
52346.0,STARLINK-3812,PAYLOAD,2024-03-25 05:49:45,15.08829279,0.0001488,53.2185,166.4139,73.2739,286.8416,0.0010136,0.00015875,0.0,0 STARLINK-3812,1 52346U 22045R   24085.24288226  .00015875  00000-0  10136-2 0  9995,2 52346  53.2185 166.4139 0001488  73.2739 286.8416 15.08829279107923,6917.913,95.438,540.808,538.749,0.0
52346.0,STARLINK-3812,PAYLOAD,2024-03-25 12:11:16,15.0884723,0.0001383,53.217,165.2172,94.0585,266.0565,0.00017393,2.482e-05,0.0,0 STARLINK-3812,1 52346U 22045R   24085.50783294  .00002482  00000-0  17393-3 0  9992,2 52346  53.2170 165.2172 0001383  94.0585 266.0565 15.08847230107961,6917.858,95.437,540.68,538.767,0.0
52346.0,STARLINK-3812,PAYLOAD,2024-03-25 21:43:34,15.08858633,0.0001701,53.2161,163.4334,63.9226,296.1941,0.0002602,3.858e-05,0.0,0 STARLINK-3812,1 52346U 22045R   24085.90526411  .00003858  00000-0  26020-3 0  9997,2 52346  53.2161 163.4334 0001701  63.9226 296.1941 15.08858633108021,6917.823,95.436,540.865,538.512,0.0
52346.0,STARLINK-3812,PAYLOAD,2024-03-26 12:02:05,15.08823589,0.0001542,53.2174,160.7616,105.9071,254.2091,-0.0001557,-2.764e-05,0.0,0 STARLINK-3812,1 52346U 22045R   24086.50145621 -.00002764  00000-0 -15570-3 0  9999,2 52346  53.2174 160.7616 0001542 105.9071 254.2091 15.08823589108119,6917.931,95.439,540.862,538.729,0.0
52346.0,STARLINK-3812,PAYLOAD,2024-03-26 21:34:23,15.08836961,0.0001256,53.2168,158.9709,74.7978,285.3153,-3.7261e-05,-8.81e-06,0.0,0 STARLINK-3812,1 52346U 22045R   24086.89888524 -.00000881  00000-0 -37261-4 0  9997,2 52346  53.2168 158.9709 0001256  74.7978 285.3153 15.08836961108173,6917.89,95.438,540.624,538.886,0.0
52346.0,STARLINK-3812,PAYLOAD,2024-03-27 11:52:51,15.08838983,0.0001329,53.2156,156.2967,87.8532,272.2612,0.00015747,2.219e-05,0.0,0 STARLINK-3812,1 52346U 22045R   24087.49503984  .00002219  00000-0  15747-3 0  9997,2 52346  53.2156 156.2967 0001329  87.8532 272.2612 15.08838983108260,6917.883,95.438,540.668,538.829,0.0
52346.0,STARLINK-3812,PAYLOAD,2024-03-27 21:25:09,15.08853887,0.0001381,53.2162,154.5132,86.4581,273.6569,0.00019843,2.873e-05,0.0,0 STARLINK-3812,1 52346U 22045R   24087.89246928  .00002873  00000-0  19843-3 0  9990,2 52346  53.2162 154.5132 0001381  86.4581 273.6569 15.08853887108322,6917.838,95.437,540.658,538.748,0.0
52346.0,STARLINK-3812,PAYLOAD,2024-03-28 11:43:39,15.08831145,0.0001453,53.2161,151.8356,88.7199,271.3959,0.00020072,2.907e-05,0.0,0 STARLINK-3812,1 52346U 22045R   24088.48864905  .00002907  00000-0  20072-3 0  9991,2 52346  53.2161 151.8356 0001453  88.7199 271.3959 15.08831145108410,6917.907,95.438,540.778,538.767,0.0
52346.0,STARLINK-3812,PAYLOAD,2024-03-28 13:19:02,15.08830592,0.000166,53.2166,151.5382,93.2103,266.9079,0.00020936,3.045e-05,0.0,0 STARLINK-3812,1 52346U 22045R   24088.55488955  .00003045  00000-0  20936-3 0  9999,2 52346  53.2166 151.5382 0001660  93.2103 266.9079 15.08830592108426,6917.909,95.438,540.923,538.626,0.0
52346.0,STARLINK-3812,PAYLOAD,2024-03-28 21:15:57,15.08849711,0.000144,53.2162,150.0502,84.8173,275.2984,0.00025329,3.746e-05,0.0,0 STARLINK-3812,1 52346U 22045R   24088.88607656  .00003746  00000-0  25329-3 0  9995,2 52346  53.2162 150.0502 0001440  84.8173 275.2984 15.08849711108475,6917.851,95.437,540.712,538.72,0.0
52346.0,STARLINK-3812,PAYLOAD,2024-03-29 11:34:25,15.08846741,0.0001383,53.2148,147.3767,89.1087,271.0064,4.0971e-05,3.64e-06,0.0,0 STARLINK-3812,1 52346U 22045R   24089.48223773  .00000364  00000-0  40971-4 0  9990,2 52346  53.2148 147.3767 0001383  89.1087 271.0064 15.08846741108562,6917.86,95.437,540.682,538.768,0.0
52346.0,STARLINK-3812,PAYLOAD,2024-03-29 21:06:43,15.08856697,0.0001438,53.2152,145.5931,91.8497,268.266,0.00017583,2.513e-05,0.0,0 STARLINK-3812,1 52346U 22045R   24089.87967129  .00002513  00000-0  17583-3 0  9993,2 52346  53.2152 145.5931 0001438  91.8497 268.2660 15.08856697108624,6917.829,95.436,540.689,538.7,0.0
52346.0,STARLINK-3812,PAYLOAD,2024-03-30 03:28:17,15.08829891,0.0001466,53.216,144.4001,105.22,254.8955,-7.3878e-05,-1.463e-05,0.0,0 STARLINK-3812,1 52346U 22045R   24090.14464259 -.00001463  00000-0 -73878-4 0  9996,2 52346  53.2160 144.4001 0001466 105.2200 254.8955 15.08829891108660,6917.911,95.438,540.79,538.762,0.0
52346.0,STARLINK-3812,PAYLOAD,2024-03-30 09:49:49,15.08841101,0.0001664,53.2146,143.2115,101.7563,258.3616,0.00013896,1.924e-05,0.0,0 STARLINK-3812,1 52346U 22045R   24090.40959983  .00001924  00000-0  13896-3 0  9991,2 52346  53.2146 143.2115 0001664 101.7563 258.3616 15.08841101108706,6917.877,95.437,540.893,538.591,0.0
52346.0,STARLINK-3812,PAYLOAD,2024-03-30 20:57:31,15.08849829,0.0001529,53.2154,141.1316,100.3883,259.7282,0.00029064,4.342e-05,0.0,0 STARLINK-3812,1 52346U 22045R   24090.87327762  .00004342  00000-0  29064-3 0  9997,2 52346  53.2154 141.1316 0001529 100.3883 259.7282 15.08849829108771,6917.85,95.437,540.773,538.658,0.0
52346.0,STARLINK-3812,PAYLOAD,2024-03-31 09:40:36,15.08841845,0.0001583,53.2161,138.7533,99.4195,260.6976,0.00020464,2.971e-05,0.0,0 STARLINK-3812,1 52346U 22045R   24091.40320213  .00002971  00000-0  20464-3 0  9992,2 52346  53.2161 138.7533 0001583  99.4195 260.6976 15.08841845108856,6917.875,95.437,540.835,538.645,0.0
52346.0,STARLINK-3812,PAYLOAD,2024-04-01 12:42:09,15.08843165,0.000135,53.2143,133.6988,89.0946,271.02,0.00020396,2.96e-05,0.0,0 STARLINK-3812,1 52346U 22045R   24092.52928186  .00002960  00000-0  20396-3 0  9991,2 52346  53.2143 133.6988 0001350  89.0946 271.0200 15.08843165109028,6917.871,95.437,540.67,538.802,0.0
